start=new Date('2022-09-08T00:00:00.000Z').valueOf();
sats=[{"BSTAR":"-0.00008015000000","OBJECT_ID":"2022-005J","INCLINATION":"53.2185","OBJECT_TYPE":"PAYLOAD","FILE":"3563022","TLE_LINE1":"1 51112U 22005J   22250.53701603 -.00001563  00000-0 -80150-4 0  9990","CENTER_NAME":"EARTH","EPOCH":"2022-09-07T12:53:18.184992","MEAN_ELEMENT_THEORY":"SGP4","MEAN_ANOMALY":"308.9711","REF_FRAME":"TEME","OBJECT_NAME":"STARLINK-3374","RA_OF_ASC_NODE":"271.4659","SEMIMAJOR_AXIS":"6917.916","REV_AT_EPOCH":"3577","TIME_SYSTEM":"UTC","ECCENTRICITY":"0.00016320","MEAN_MOTION":"15.08828391","ARG_OF_PERICENTER":"51.1427","EPHEMERIS_TYPE":"0","NORAD_CAT_ID":"51112","PERIAPSIS":"538.652","MEAN_MOTION_DDOT":"0.0000000000000","PERIOD":"95.438","SITE":"AFETR","COUNTRY_CODE":"US","APOAPSIS":"540.910","ELEMENT_SET_NO":"999","LAUNCH_DATE":"2022-01-19","TLE_LINE2":"2 51112  53.2185 271.4659 0001632  51.1427 308.9711 15.08828391 35778","DECAY_DATE":null,"RCS_SIZE":"LARGE","CLASSIFICATION_TYPE":"U","MEAN_MOTION_DOT":"-0.00001563","GP_ID":"212010364"},{"GP_ID":"212011614","MEAN_MOTION_DOT":"-0.00000913","CLASSIFICATION_TYPE":"U","DECAY_DATE":null,"TLE_LINE2":"2 51113  53.2166 270.0140 0001784  57.2506 302.8657 15.08835801 35812","RCS_SIZE":"LARGE","LAUNCH_DATE":"2022-01-19","COUNTRY_CODE":"US","APOAPSIS":"540.992","ELEMENT_SET_NO":"999","SITE":"AFETR","PERIOD":"95.438","MEAN_MOTION_DDOT":"0.0000000000000","PERIAPSIS":"538.524","NORAD_CAT_ID":"51113","EPHEMERIS_TYPE":"0","ARG_OF_PERICENTER":"57.2506","ECCENTRICITY":"0.00017840","MEAN_MOTION":"15.08835801","TIME_SYSTEM":"UTC","REV_AT_EPOCH":"3581","RA_OF_ASC_NODE":"270.0140","SEMIMAJOR_AXIS":"6917.893","OBJECT_NAME":"STARLINK-3372","REF_FRAME":"TEME","MEAN_ANOMALY":"302.8657","MEAN_ELEMENT_THEORY":"SGP4","CENTER_NAME":"EARTH","EPOCH":"2022-09-07T20:34:20.147232","TLE_LINE1":"1 51113U 22005K   22250.85717763 -.00000913  00000-0 -39294-4 0  9991","FILE":"3563022","OBJECT_TYPE":"PAYLOAD","INCLINATION":"53.2166","OBJECT_ID":"2022-005K","BSTAR":"-0.00003929400000"},{"TLE_LINE1":"1 51114U 22005L   22250.47814442 -.00001528  00000-0 -77968-4 0  9995","FILE":"3562217","REF_FRAME":"TEME","MEAN_ANOMALY":"313.6178","MEAN_ELEMENT_THEORY":"SGP4","EPOCH":"2022-09-07T11:28:31.677888","CENTER_NAME":"EARTH","OBJECT_ID":"2022-005L","INCLINATION":"53.2161","BSTAR":"-0.00007796800000","OBJECT_TYPE":"PAYLOAD","PERIOD":"95.438","SITE":"AFETR","COUNTRY_CODE":"US","ELEMENT_SET_NO":"999","APOAPSIS":"541.108","PERIAPSIS":"538.450","NORAD_CAT_ID":"51114","MEAN_MOTION_DDOT":"0.0000000000000","MEAN_MOTION_DOT":"-0.00001528","GP_ID":"211966607","CLASSIFICATION_TYPE":"U","RCS_SIZE":"LARGE","TLE_LINE2":"2 51114  53.2161 271.7375 0001921  46.4973 313.6178 15.08829099 35761","DECAY_DATE":null,"LAUNCH_DATE":"2022-01-19","MEAN_MOTION":"15.08829099","ECCENTRICITY":"0.00019210","TIME_SYSTEM":"UTC","REV_AT_EPOCH":"3576","OBJECT_NAME":"STARLINK-3375","SEMIMAJOR_AXIS":"6917.914","RA_OF_ASC_NODE":"271.7375","EPHEMERIS_TYPE":"0","ARG_OF_PERICENTER":"46.4973"},{"FILE":"3562484","TLE_LINE1":"1 51115U 22005M   22250.38614464 -.00002100  00000-0 -11394-3 0  9995","MEAN_ANOMALY":"308.0710","REF_FRAME":"TEME","CENTER_NAME":"EARTH","EPOCH":"2022-09-07T09:16:02.896896","MEAN_ELEMENT_THEORY":"SGP4","OBJECT_ID":"2022-005M","INCLINATION":"53.2163","BSTAR":"-0.00011394000000","OBJECT_TYPE":"PAYLOAD","SITE":"AFETR","PERIOD":"95.439","COUNTRY_CODE":"US","ELEMENT_SET_NO":"999","APOAPSIS":"541.024","NORAD_CAT_ID":"51115","PERIAPSIS":"538.559","MEAN_MOTION_DDOT":"0.0000000000000","CLASSIFICATION_TYPE":"U","MEAN_MOTION_DOT":"-0.00002100","GP_ID":"211974824","LAUNCH_DATE":"2022-01-19","DECAY_DATE":null,"TLE_LINE2":"2 51115  53.2163 272.1279 0001782  52.0443 308.0710 15.08824875 36850","RCS_SIZE":"LARGE","REV_AT_EPOCH":"3685","TIME_SYSTEM":"UTC","MEAN_MOTION":"15.08824875","ECCENTRICITY":"0.00017820","OBJECT_NAME":"STARLINK-3397","SEMIMAJOR_AXIS":"6917.927","RA_OF_ASC_NODE":"272.1279","EPHEMERIS_TYPE":"0","ARG_OF_PERICENTER":"52.0443"},{"MEAN_MOTION_DOT":"-0.00001100","GP_ID":"212010863","CLASSIFICATION_TYPE":"U","TLE_LINE2":"2 51116  53.2172 271.4707 0001834  54.9454 305.1710 15.08842136 35767","DECAY_DATE":null,"RCS_SIZE":"LARGE","LAUNCH_DATE":"2022-01-19","SITE":"AFETR","PERIOD":"95.437","APOAPSIS":"541.008","COUNTRY_CODE":"US","ELEMENT_SET_NO":"999","PERIAPSIS":"538.470","NORAD_CAT_ID":"51116","MEAN_MOTION_DDOT":"0.0000000000000","EPHEMERIS_TYPE":"0","ARG_OF_PERICENTER":"54.9454","ECCENTRICITY":"0.00018340","MEAN_MOTION":"15.08842136","TIME_SYSTEM":"UTC","REV_AT_EPOCH":"3576","OBJECT_NAME":"STARLINK-3243","SEMIMAJOR_AXIS":"6917.874","RA_OF_ASC_NODE":"271.4707","REF_FRAME":"TEME","MEAN_ANOMALY":"305.1710","MEAN_ELEMENT_THEORY":"SGP4","CENTER_NAME":"EARTH","EPOCH":"2022-09-07T12:47:59.522784","TLE_LINE1":"1 51116U 22005N   22250.53332781 -.00001100  00000-0 -51002-4 0  9992","FILE":"3563022","OBJECT_TYPE":"PAYLOAD","OBJECT_ID":"2022-005N","INCLINATION":"53.2172","BSTAR":"-0.00005100200000"},{"OBJECT_TYPE":"PAYLOAD","BSTAR":"0.00003963700000","OBJECT_ID":"2022-005P","INCLINATION":"53.2174","CENTER_NAME":"EARTH","EPOCH":"2022-09-07T10:30:12.947904","MEAN_ELEMENT_THEORY":"SGP4","MEAN_ANOMALY":"313.3486","REF_FRAME":"TEME","FILE":"3562217","TLE_LINE1":"1 51117U 22005P   22250.43764986  .00000343  00000-0  39637-4 0  9994","ARG_OF_PERICENTER":"46.7659","EPHEMERIS_TYPE":"0","OBJECT_NAME":"STARLINK-3391","SEMIMAJOR_AXIS":"6917.889","RA_OF_ASC_NODE":"271.9030","TIME_SYSTEM":"UTC","REV_AT_EPOCH":"3575","ECCENTRICITY":"0.00018280","MEAN_MOTION":"15.08837253","LAUNCH_DATE":"2022-01-19","RCS_SIZE":"LARGE","TLE_LINE2":"2 51117  53.2174 271.9030 0001828  46.7659 313.3486 15.08837253 35757","DECAY_DATE":null,"CLASSIFICATION_TYPE":"U","GP_ID":"211965856","MEAN_MOTION_DOT":"0.00000343","NORAD_CAT_ID":"51117","PERIAPSIS":"538.489","MEAN_MOTION_DDOT":"0.0000000000000","SITE":"AFETR","PERIOD":"95.438","ELEMENT_SET_NO":"999","COUNTRY_CODE":"US","APOAPSIS":"541.018"},{"LAUNCH_DATE":"2022-01-19","RCS_SIZE":"LARGE","TLE_LINE2":"2 51118  53.2169 272.1136 0001931  48.0692 312.0464 15.08838652 35744","DECAY_DATE":null,"CLASSIFICATION_TYPE":"U","GP_ID":"211967108","MEAN_MOTION_DOT":"0.00000306","MEAN_MOTION_DDOT":"0.0000000000000","PERIAPSIS":"538.414","NORAD_CAT_ID":"51118","COUNTRY_CODE":"US","ELEMENT_SET_NO":"999","APOAPSIS":"541.085","PERIOD":"95.438","SITE":"AFETR","ARG_OF_PERICENTER":"48.0692","EPHEMERIS_TYPE":"0","RA_OF_ASC_NODE":"272.1136","SEMIMAJOR_AXIS":"6917.885","OBJECT_NAME":"STARLINK-3394","REV_AT_EPOCH":"3574","TIME_SYSTEM":"UTC","ECCENTRICITY":"0.00019310","MEAN_MOTION":"15.08838652","EPOCH":"2022-09-07T09:21:19.341216","CENTER_NAME":"EARTH","MEAN_ELEMENT_THEORY":"SGP4","MEAN_ANOMALY":"312.0464","REF_FRAME":"TEME","FILE":"3562217","TLE_LINE1":"1 51118U 22005Q   22250.38980719  .00000306  00000-0  37315-4 0  9993","OBJECT_TYPE":"PAYLOAD","BSTAR":"0.00003731500000","INCLINATION":"53.2169","OBJECT_ID":"2022-005Q"},{"SITE":"AFETR","PERIOD":"95.438","COUNTRY_CODE":"US","ELEMENT_SET_NO":"999","APOAPSIS":"541.010","NORAD_CAT_ID":"51119","PERIAPSIS":"538.516","MEAN_MOTION_DDOT":"0.0000000000000","CLASSIFICATION_TYPE":"U","MEAN_MOTION_DOT":"-0.00000132","GP_ID":"211938700","LAUNCH_DATE":"2022-01-19","TLE_LINE2":"2 51119  53.2167 271.6344 0001803  46.5346 313.5796 15.08834278 36874","RCS_SIZE":"LARGE","DECAY_DATE":null,"REV_AT_EPOCH":"3687","TIME_SYSTEM":"UTC","MEAN_MOTION":"15.08834278","ECCENTRICITY":"0.00018030","OBJECT_NAME":"STARLINK-3390","RA_OF_ASC_NODE":"271.6344","SEMIMAJOR_AXIS":"6917.898","EPHEMERIS_TYPE":"0","ARG_OF_PERICENTER":"46.5346","FILE":"3562049","TLE_LINE1":"1 51119U 22005R   22250.50021008 -.00000132  00000-0  98393-5 0  9997","MEAN_ANOMALY":"313.5796","REF_FRAME":"TEME","CENTER_NAME":"EARTH","EPOCH":"2022-09-07T12:00:18.150912","MEAN_ELEMENT_THEORY":"SGP4","OBJECT_ID":"2022-005R","INCLINATION":"53.2167","BSTAR":"0.00000983930000","OBJECT_TYPE":"PAYLOAD"},{"OBJECT_TYPE":"PAYLOAD","BSTAR":"-0.00005252500000","OBJECT_ID":"2022-005S","INCLINATION":"53.2158","CENTER_NAME":"EARTH","EPOCH":"2022-09-07T07:03:33.772896","MEAN_ELEMENT_THEORY":"SGP4","MEAN_ANOMALY":"319.2014","REF_FRAME":"TEME","FILE":"3562217","TLE_LINE1":"1 51120U 22005S   22250.29414089 -.00001124  00000-0 -52525-4 0  9999","ARG_OF_PERICENTER":"40.9133","EPHEMERIS_TYPE":"0","OBJECT_NAME":"STARLINK-3398","SEMIMAJOR_AXIS":"6917.909","RA_OF_ASC_NODE":"272.5626","TIME_SYSTEM":"UTC","REV_AT_EPOCH":"3573","ECCENTRICITY":"0.00020640","MEAN_MOTION":"15.08830718","LAUNCH_DATE":"2022-01-19","RCS_SIZE":"LARGE","TLE_LINE2":"2 51120  53.2158 272.5626 0002064  40.9133 319.2014 15.08830718 35736","DECAY_DATE":null,"CLASSIFICATION_TYPE":"U","GP_ID":"211966107","MEAN_MOTION_DOT":"-0.00001124","NORAD_CAT_ID":"51120","PERIAPSIS":"538.346","MEAN_MOTION_DDOT":"0.0000000000000","PERIOD":"95.438","SITE":"AFETR","COUNTRY_CODE":"US","APOAPSIS":"541.202","ELEMENT_SET_NO":"999"},{"BSTAR":"-0.00005590400000","INCLINATION":"53.2166","OBJECT_ID":"2022-005T","OBJECT_TYPE":"PAYLOAD","FILE":"3562217","TLE_LINE1":"1 51121U 22005T   22250.44134101 -.00001178  00000-0 -55904-4 0  9994","EPOCH":"2022-09-07T10:35:31.863264","CENTER_NAME":"EARTH","MEAN_ELEMENT_THEORY":"SGP4","MEAN_ANOMALY":"322.4418","REF_FRAME":"TEME","RA_OF_ASC_NODE":"271.8803","SEMIMAJOR_AXIS":"6917.900","OBJECT_NAME":"STARLINK-3399","REV_AT_EPOCH":"3575","TIME_SYSTEM":"UTC","MEAN_MOTION":"15.08833496","ECCENTRICITY":"0.00021290","ARG_OF_PERICENTER":"37.6723","EPHEMERIS_TYPE":"0","MEAN_MOTION_DDOT":"0.0000000000000","NORAD_CAT_ID":"51121","PERIAPSIS":"538.292","COUNTRY_CODE":"US","ELEMENT_SET_NO":"999","APOAPSIS":"541.238","SITE":"AFETR","PERIOD":"95.438","LAUNCH_DATE":"2022-01-19","TLE_LINE2":"2 51121  53.2166 271.8803 0002129  37.6723 322.4418 15.08833496 35757","DECAY_DATE":null,"RCS_SIZE":"LARGE","CLASSIFICATION_TYPE":"U","MEAN_MOTION_DOT":"-0.00001178","GP_ID":"211966357"}];
